SL-4 R/B                
1 39679U 14021B   26027.90133100  .00014034  00000+0  32283-3 0  9998
2 39679  51.6052 176.0576 0099041 314.2266  45.0616 15.37897416649994
ALOS-2                  
1 39766U 14029A   26027.46285272  .00000535  00000+0  78529-4 0  9997
2 39766  97.9188 126.6510 0001467 100.4748 259.6629 14.79473850630778
YAOGAN-29               
1 41038U 15069A   26027.97316464  .00001273  00000+0  16358-3 0  9992
2 41038  98.0195  56.2866 0002826 104.5498 255.6029 14.82947365549840
ASTRO-H (HITOMI)        
1 41337U 16012A   26027.97682459  .00003869  00000+0  22838-3 0  9996
2 41337  30.9990 259.2188 0009923 283.7812  76.1721 15.09698665546070
HXMT (HUIYAN)           
1 42758U 17034A   26027.96007157  .00007389  00000+0  37471-3 0  9994
2 42758  43.0129 243.0208 0032560 334.8521  25.0740 15.16922048476359
CZ-2C R/B               
1 43521U 18054D   26027.66053087  .00249151  22969-4  84022-3 0  9998
2 43521  35.1320 226.6256 0014314 272.4267  87.4832 15.88764871422323
SAOCOM 1A               
1 43641U 18076A   26027.98408961  .00000566  00000+0  77670-4 0  9999
2 43641  97.8866 216.7354 0001490  81.6173 278.5210 14.82170334395333
H-2A R/B                
1 43682U 18084L   26027.54936397  .00028291  00000+0  71400-3 0  9993
2 43682  98.8766 236.2004 0026036 164.5302 195.6741 15.39469595399442
SAOCOM 1B               
1 46265U 20059A   26027.94784949  .00001471  00000+0  19137-3 0  9996
2 46265  97.8864 215.7980 0001394  85.9629 274.1743 14.82149676292712
CSS (TIANHE)            
1 48274U 21035A   26027.86833263  .00025117  00000+0  29086-3 0  9995
2 48274  41.4671  96.2532 0009507  17.8784 342.2387 15.61194867271235
COSMOS 2550             
1 48865U 21056A   26026.13240542 -.00000181  00000+0  32270-6 0  9992
2 48865  67.1441 169.6578 0008309 269.8947  90.1255 15.33840202256938
CZ-2C R/B               
1 52794U 22058K   26027.84118104  .00033282  00000+0  53942-3 0  9991
2 52794  50.1879 167.9562 0042581  28.1068 332.2187 15.51385261203783
